{
  "norad_id": 53893,
  "name": "STARLINK-5052",
  "history": [
    {
      "epoch": "2026-03-28T19:51:17.020512Z",
      "apogee_km": 540.7307234875307,
      "perigee_km": 538.7194242681717,
      "latitude_deg": 6.451212901606385e-05,
      "longitude_deg": 114.14918856901386,
      "height_km": 540.6999240094069,
      "semi_major_axis_km": 6917.862073877851,
      "eccentricity": 0.00014537,
      "inclination_deg": 53.2161,
      "raan_deg": 238.2122,
      "arg_perigee_deg": 94.5293,
      "mean_anomaly_deg": 265.5866,
      "mean_motion_rev_day": 15.08845992
    },
    {
      "epoch": "2026-03-30T13:11:19.317696Z",
      "apogee_km": 540.5632744612003,
      "perigee_km": 538.9933227633337,
      "latitude_deg": -4.562147779725555e-07,
      "longitude_deg": -155.28915615079563,
      "height_km": 540.7127866582596,
      "semi_major_axis_km": 6917.915298612266,
      "eccentricity": 0.00011347,
      "inclination_deg": 53.2173,
      "raan_deg": 230.481,
      "arg_perigee_deg": 92.8103,
      "mean_anomaly_deg": 267.3019,
      "mean_motion_rev_day": 15.08828579
    },
    {
      "epoch": "2026-03-30T19:32:51.892800Z",
      "apogee_km": 540.6329457947177,
      "perigee_km": 538.9171652467085,
      "latitude_deg": -5.740884393297904e-05,
      "longitude_deg": 107.87431536129706,
      "height_km": 540.7450373392631,
      "semi_major_axis_km": 6917.912055520713,
      "eccentricity": 0.00012401,
      "inclination_deg": 53.2169,
      "raan_deg": 229.2914,
      "arg_perigee_deg": 94.9587,
      "mean_anomaly_deg": 265.1546,
      "mean_motion_rev_day": 15.0882964
    },
    {
      "epoch": "2026-03-31T19:23:38.164704Z",
      "apogee_km": 540.579087534823,
      "perigee_km": 538.8980437723685,
      "latitude_deg": -2.2445344484512797e-05,
      "longitude_deg": 104.74131501979143,
      "height_km": 540.6611476570977,
      "semi_major_axis_km": 6917.875565653595,
      "eccentricity": 0.0001215,
      "inclination_deg": 53.216,
      "raan_deg": 224.8305,
      "arg_perigee_deg": 91.8286,
      "mean_anomaly_deg": 268.2845,
      "mean_motion_rev_day": 15.08841578
    },
    {
      "epoch": "2026-04-01T09:42:07.282944Z",
      "apogee_km": 540.6058246300881,
      "perigee_km": 538.946909004726,
      "latitude_deg": 4.6197370432916666e-05,
      "longitude_deg": -113.14367148319177,
      "height_km": 540.7015258794094,
      "semi_major_axis_km": 6917.913366817406,
      "eccentricity": 0.0001199,
      "inclination_deg": 53.2161,
      "raan_deg": 222.1544,
      "arg_perigee_deg": 92.0299,
      "mean_anomaly_deg": 268.0831,
      "mean_motion_rev_day": 15.08829211
    },
    {
      "epoch": "2026-04-02T17:29:49.696224Z",
      "apogee_km": 540.6351981151993,
      "perigee_km": 538.8151085826521,
      "latitude_deg": 4.535790444976695e-06,
      "longitude_deg": 122.67609781673373,
      "height_km": 540.522300932115,
      "semi_major_axis_km": 6917.862153348925,
      "eccentricity": 0.00013155,
      "inclination_deg": 53.2154,
      "raan_deg": 216.2067,
      "arg_perigee_deg": 83.7913,
      "mean_anomaly_deg": 276.3229,
      "mean_motion_rev_day": 15.08845966
    },
    {
      "epoch": "2026-04-03T17:20:36.386304Z",
      "apogee_km": 540.6506024464124,
      "perigee_km": 538.7696398141779,
      "latitude_deg": -3.269958238853113e-05,
      "longitude_deg": 119.54209540746638,
      "height_km": 540.477215539113,
      "semi_major_axis_km": 6917.847121130295,
      "eccentricity": 0.00013595,
      "inclination_deg": 53.2155,
      "raan_deg": 211.7466,
      "arg_perigee_deg": 82.1507,
      "mean_anomaly_deg": 277.9639,
      "mean_motion_rev_day": 15.08850884
    },
    {
      "epoch": "2026-04-05T13:51:22.430880Z",
      "apogee_km": 540.5483440156204,
      "perigee_km": 538.7630000828176,
      "latitude_deg": 1.4012236794323022e-06,
      "longitude_deg": 161.69519102449368,
      "height_km": 540.5447027084119,
      "semi_major_axis_km": 6917.792672049219,
      "eccentricity": 0.00012904,
      "inclination_deg": 53.2155,
      "raan_deg": 203.4196,
      "arg_perigee_deg": 89.5776,
      "mean_anomaly_deg": 270.5364,
      "mean_motion_rev_day": 15.08868698
    }
  ]
}